{"type": "FeatureCollection", "features": [ {"type": "Feature", "properties": {"norad_id": 36203, "name": "FENGYUN 1C DEB", "group": "fengyun-1c-debris", "lat": 42.07677854744433, "lon": 132.51705733995567, "alt_km": 577.8814045856843, "timestamp": "2025-12-24T20:42:21.314848+00:00", "meta": {"OBJECT_NAME": "FENGYUN 1C DEB", "OBJECT_ID": "1999-025DUC", "EPOCH": "2025-12-16T02:34:12.047232", "MEAN_MOTION": 14.78467362, "ECCENTRICITY": 0.00836343, "INCLINATION": 99.0958, "RA_OF_ASC_NODE": 294.3166, "ARG_OF_PERICENTER": 138.0502, "MEAN_ANOMALY": 222.7152, "EPHEMERIS_TYPE": 0, "CLASSIFICATION_TYPE": "U", "NORAD_CAT_ID": 36203, "ELEMENT_SET_NO": 999, "REV_AT_EPOCH": 63479, "BSTAR": 0.00071031238, "MEAN_MOTION_DOT": 5.428e-05, "MEAN_MOTION_DDOT": 0}, "tle": {"line1": "1 36203U 99025DUC 25350.10708388  .00005428  00000+0  71031-3 0  9992", "line2": "2 36203  99.0958 294.3166 0083634 138.0502 222.7152 14.78467362634798"}}, "geometry": {"type": "Point", "coordinates": [132.51705733995567, 42.07677854744433]}}, {"type": "Feature", "properties": {"norad_id": 36204, "name": "FENGYUN 1C DEB", "group": "fengyun-1c-debris", "lat": 23.00975958101759, "lon": -79.1657287370985, "alt_km": 763.1186187517078, "timestamp": "2025-12-24T20:42:21.314858+00:00", "meta": {"OBJECT_NAME": "FENGYUN 1C DEB", "OBJECT_ID": "1999-025DUD", "EPOCH": "2025-12-20T00:29:04.036704", "MEAN_MOTION": 14.34620289, "ECCENTRICITY": 0.00199406, "INCLINATION": 99.2912, "RA_OF_ASC_NODE": 91.6441, "ARG_OF_PERICENTER": 143.0845, "MEAN_ANOMALY": 217.1715, "EPHEMERIS_TYPE": 0, "CLASSIFICATION_TYPE": "U", "NORAD_CAT_ID": 36204, "ELEMENT_SET_NO": 999, "REV_AT_EPOCH": 94532, "BSTAR": 0.00076658222, "MEAN_MOTION_DOT": 2.122e-05, "MEAN_MOTION_DDOT": 0}, "tle": {"line1": "1 36204U 99025DUD 25354.02018561  .00002122  00000+0  76658-3 0  9993", "line2": "2 36204  99.2912  91.6441 0019940 143.0845 217.1715 14.34620289945328"}}, "geometry": {"type": "Point", "coordinates": [-79.1657287370985, 23.00975958101759]}}, {"type": "Feature", "properties": {"norad_id": 36206, "name": "FENGYUN 1C DEB", "group": "fengyun-1c-debris", "lat": -36.012090214844584, "lon": 27.76409282547749, "alt_km": 805.7602204192126, "timestamp": "2025-12-24T20:42:21.314867+00:00", "meta": {"OBJECT_NAME": "FENGYUN 1C DEB", "OBJECT_ID": "1999-025DUF", "EPOCH": "2025-12-16T08:29:03.735744", "MEAN_MOTION": 14.21592437, "ECCENTRICITY": 0.00302163, "INCLINATION": 98.4786, "RA_OF_ASC_NODE": 13.3653, "ARG_OF_PERICENTER": 8.6843, "MEAN_ANOMALY": 351.4852, "EPHEMERIS_TYPE": 0, "CLASSIFICATION_TYPE": "U", "NORAD_CAT_ID": 36206, "ELEMENT_SET_NO": 999, "REV_AT_EPOCH": 64472, "BSTAR": 0.00060166506, "MEAN_MOTION_DOT": 1.283e-05, "MEAN_MOTION_DDOT": 0}, "tle": {"line1": "1 36206U 99025DUF 25350.35351546  .00001283  00000+0  60167-3 0  9995", "line2": "2 36206  98.4786  13.3653 0030216   8.6843 351.4852 14.21592437644722"}}, "geometry": {"type": "Point", "coordinates": [27.76409282547749, -36.012090214844584]}}, {"type": "Feature", "properties": {"norad_id": 36211, "name": "FENGYUN 1C DEB", "group": "fengyun-1c-debris", "lat": -60.14678343965012, "lon": 6.800829357261175, "alt_km": 858.7533971163357, "timestamp": "2025-12-24T20:42:21.314877+00:00", "meta": {"OBJECT_NAME": "FENGYUN 1C DEB", "OBJECT_ID": "1999-025DUL", "EPOCH": "2025-12-23T06:16:15.708288", "MEAN_MOTION": 14.260204, "ECCENTRICITY": 0.02668464, "INCLINATION": 98.5048, "RA_OF_ASC_NODE": 350.132, "ARG_OF_PERICENTER": 197.9327, "MEAN_ANOMALY": 161.23, "EPHEMERIS_TYPE": 0, "CLASSIFICATION_TYPE": "U", "NORAD_CAT_ID": 36211, "ELEMENT_SET_NO": 999, "REV_AT_EPOCH": 94519, "BSTAR": 0.00037114445, "MEAN_MOTION_DOT": 1.239e-05, "MEAN_MOTION_DDOT": 0}, "tle": {"line1": "1 36211U 99025DUL 25357.26129292  .00001239  00000+0  37114-3 0  9996", "line2": "2 36211  98.5048 350.1320 0266846 197.9327 161.2300 14.26020400945193"}}, "geometry": {"type": "Point", "coordinates": [6.800829357261175, -60.14678343965012]}}, {"type": "Feature", "properties": {"norad_id": 36216, "name": "FENGYUN 1C DEB", "group": "fengyun-1c-debris", "lat": -4.315317994709148, "lon": 19.37228435017676, "alt_km": 801.3156639373829, "timestamp": "2025-12-24T20:42:21.314887+00:00", "meta": {"OBJECT_NAME": "FENGYUN 1C DEB", "OBJECT_ID": "1999-025DUR", "EPOCH": "2025-12-23T21:01:56.169120", "MEAN_MOTION": 14.1887447, "ECCENTRICITY": 0.0044588, "INCLINATION": 98.608, "RA_OF_ASC_NODE": 17.7597, "ARG_OF_PERICENTER": 345.4193, "MEAN_ANOMALY": 14.5694, "EPHEMERIS_TYPE": 0, "CLASSIFICATION_TYPE": "U", "NORAD_CAT_ID": 36216, "ELEMENT_SET_NO": 999, "REV_AT_EPOCH": 64530, "BSTAR": 0.00035811, "MEAN_MOTION_DOT": 7.1e-06, "MEAN_MOTION_DDOT": 0}, "tle": {"line1": "1 36216U 99025DUR 25357.87634455  .00000710  00000+0  35811-3 0  9995", "line2": "2 36216  98.6080  17.7597 0044588 345.4193  14.5694 14.18874470645306"}}, "geometry": {"type": "Point", "coordinates": [19.37228435017676, -4.315317994709148]}}, {"type": "Feature", "properties": {"norad_id": 36218, "name": "FENGYUN 1C DEB", "group": "fengyun-1c-debris", "lat": 14.398353832239192, "lon": -161.10670620563735, "alt_km": 680.8896192156062, "timestamp": "2025-12-24T20:42:21.314896+00:00", "meta": {"OBJECT_NAME": "FENGYUN 1C DEB", "OBJECT_ID": "1999-025DUT", "EPOCH": "2025-12-20T18:41:49.976160", "MEAN_MOTION": 14.71089731, "ECCENTRICITY": 0.00724973, "INCLINATION": 99.0751, "RA_OF_ASC_NODE": 196.6991, "ARG_OF_PERICENTER": 270.7266, "MEAN_ANOMALY": 88.5631, "EPHEMERIS_TYPE": 0, "CLASSIFICATION_TYPE": "U", "NORAD_CAT_ID": 36218, "ELEMENT_SET_NO": 999, "REV_AT_EPOCH": 59261, "BSTAR": 0.00093548093, "MEAN_MOTION_DOT": 5.929e-05, "MEAN_MOTION_DDOT": 0}, "tle": {"line1": "1 36218U 99025DUT 25354.77905065  .00005929  00000+0  93548-3 0  9999", "line2": "2 36218  99.0751 196.6991 0072497 270.7266  88.5631 14.71089731592618"}}, "geometry": {"type": "Point", "coordinates": [-161.10670620563735, 14.398353832239192]}}, {"type": "Feature", "properties": {"norad_id": 36224, "name": "FENGYUN 1C DEB", "group": "fengyun-1c-debris", "lat": -33.569830287806084, "lon": 51.84851842775499, "alt_km": 774.3979117701192, "timestamp": "2025-12-24T20:42:21.314906+00:00", "meta": {"OBJECT_NAME": "FENGYUN 1C DEB", "OBJECT_ID": "1999-025DUZ", "EPOCH": "2025-12-21T09:34:36.458112", "MEAN_MOTION": 14.12766367, "ECCENTRICITY": 0.01141721, "INCLINATION": 98.7788, "RA_OF_ASC_NODE": 42.567, "ARG_OF_PERICENTER": 327.3018, "MEAN_ANOMALY": 32.1122, "EPHEMERIS_TYPE": 0, "CLASSIFICATION_TYPE": "U", "NORAD_CAT_ID": 36224, "ELEMENT_SET_NO": 999, "REV_AT_EPOCH": 64554, "BSTAR": 0.00010323044, "MEAN_MOTION_DOT": 1.6e-06, "MEAN_MOTION_DDOT": 0}, "tle": {"line1": "1 36224U 99025DUZ 25355.39903308  .00000160  00000+0  10323-3 0  9995", "line2": "2 36224  98.7788  42.5670 0114172 327.3018  32.1122 14.12766367645548"}}, "geometry": {"type": "Point", "coordinates": [51.84851842775499, -33.569830287806084]}}, {"type": "Feature", "properties": {"norad_id": 36225, "name": "FENGYUN 1C DEB", "group": "fengyun-1c-debris", "lat": -31.450976830758155, "lon": -63.44132788154448, "alt_km": 528.6327050964064, "timestamp": "2025-12-24T20:42:21.314916+00:00", "meta": {"OBJECT_NAME": "FENGYUN 1C DEB", "OBJECT_ID": "1999-025DVA", "EPOCH": "2025-12-24T03:49:44.578272", "MEAN_MOTION": 15.06871412, "ECCENTRICITY": 0.0043765, "INCLINATION": 98.8196, "RA_OF_ASC_NODE": 121.2032, "ARG_OF_PERICENTER": 254.795, "MEAN_ANOMALY": 104.8432, "EPHEMERIS_TYPE": 0, "CLASSIFICATION_TYPE": "U", "NORAD_CAT_ID": 36225, "ELEMENT_SET_NO": 999, "REV_AT_EPOCH": 66944, "BSTAR": 0.0028634357, "MEAN_MOTION_DOT": 0.00043825, "MEAN_MOTION_DDOT": 0}, "tle": {"line1": "1 36225U 99025DVA 25358.15954373  .00043825  00000+0  28634-2 0  9999", "line2": "2 36225  98.8196 121.2032 0043765 254.7950 104.8432 15.06871412669445"}}, "geometry": {"type": "Point", "coordinates": [-63.44132788154448, -31.450976830758155]}}, {"type": "Feature", "properties": {"norad_id": 36226, "name": "FENGYUN 1C DEB", "group": "fengyun-1c-debris", "lat": 12.766127605563845, "lon": 38.88913483901494, "alt_km": 797.8188635527149, "timestamp": "2025-12-24T20:42:21.314926+00:00", "meta": {"OBJECT_NAME": "FENGYUN 1C DEB", "OBJECT_ID": "1999-025DVB", "EPOCH": "2025-12-16T21:56:50.014464", "MEAN_MOTION": 14.10310742, "ECCENTRICITY": 0.0095148, "INCLINATION": 98.6088, "RA_OF_ASC_NODE": 33.2455, "ARG_OF_PERICENTER": 8.6109, "MEAN_ANOMALY": 351.6668, "EPHEMERIS_TYPE": 0, "CLASSIFICATION_TYPE": "U", "NORAD_CAT_ID": 36226, "ELEMENT_SET_NO": 999, "REV_AT_EPOCH": 63821, "BSTAR": 0.0011977074, "MEAN_MOTION_DOT": 2.175e-05, "MEAN_MOTION_DDOT": 0}, "tle": {"line1": "1 36226U 99025DVB 25350.91446776  .00002175  00000+0  11977-2 0  9994", "line2": "2 36226  98.6088  33.2455 0095148   8.6109 351.6668 14.10310742638211"}}, "geometry": {"type": "Point", "coordinates": [38.88913483901494, 12.766127605563845]}}, {"type": "Feature", "properties": {"norad_id": 36229, "name": "FENGYUN 1C DEB", "group": "fengyun-1c-debris", "lat": 5.797946758846735, "lon": -139.98531090670426, "alt_km": 862.7697667081029, "timestamp": "2025-12-24T20:42:21.314935+00:00", "meta": {"OBJECT_NAME": "FENGYUN 1C DEB", "OBJECT_ID": "1999-025DVE", "EPOCH": "2025-12-22T20:54:01.687104", "MEAN_MOTION": 14.0724162, "ECCENTRICITY": 0.0103206, "INCLINATION": 100.9244, "RA_OF_ASC_NODE": 218.7357, "ARG_OF_PERICENTER": 95.633, "MEAN_ANOMALY": 265.6612, "EPHEMERIS_TYPE": 0, "CLASSIFICATION_TYPE": "U", "NORAD_CAT_ID": 36229, "ELEMENT_SET_NO": 999, "REV_AT_EPOCH": 63398, "BSTAR": 0.0014621, "MEAN_MOTION_DOT": 2.515e-05, "MEAN_MOTION_DDOT": 0}, "tle": {"line1": "1 36229U 99025DVE 25356.87085286  .00002515  00000+0  14621-2 0  9990", "line2": "2 36229 100.9244 218.7357 0103206  95.6330 265.6612 14.07241620633989"}}, "geometry": {"type": "Point", "coordinates": [-139.98531090670426, 5.797946758846735]}}]}